[{"OBJECT_NAME":"ONEWEB-0716","OBJECT_ID":"2023-004AP","EPOCH":"2026-03-09T20:56:27.172608","MEAN_MOTION":13.17649235,"ECCENTRICITY":0.00017718,"INCLINATION":87.915,"RA_OF_ASC_NODE":25.5889,"ARG_OF_PERICENTER":87.9288,"MEAN_ANOMALY":272.2047,"EPHEMERIS_TYPE":0,"CLASSIFICATION_TYPE":"U","NORAD_CAT_ID":55177,"ELEMENT_SET_NO":999,"REV_AT_EPOCH":15450,"BSTAR":9.3738252e-5,"MEAN_MOTION_DOT":4.9e-7,"MEAN_MOTION_DDOT":0},{"OBJECT_NAME":"SCOUT A R\/B","OBJECT_ID":"1970-067B","EPOCH":"2026-03-09T22:54:58.932864","MEAN_MOTION":13.49659171,"ECCENTRICITY":0.01746933,"INCLINATION":90.0072,"RA_OF_ASC_NODE":234.1093,"ARG_OF_PERICENTER":132.7059,"MEAN_ANOMALY":341.188,"EPHEMERIS_TYPE":0,"CLASSIFICATION_TYPE":"U","NORAD_CAT_ID":4515,"ELEMENT_SET_NO":999,"REV_AT_EPOCH":73195,"BSTAR":0.00023152136,"MEAN_MOTION_DOT":1.72e-6,"MEAN_MOTION_DDOT":0}]
